{
  "norad_id": 55172,
  "name": "ONEWEB-0709",
  "history": [
    {
      "epoch": "2026-05-02T06:34:07.364640Z",
      "apogee_km": 1218.8553624968526,
      "perigee_km": 1216.5204059274447,
      "latitude_deg": 6.449384068738079e-05,
      "longitude_deg": 71.48522090710185,
      "height_km": 1219.8224051822629,
      "semi_major_axis_km": 7595.824884212148,
      "eccentricity": 0.0001537,
      "inclination_deg": 87.8921,
      "raan_deg": 30.21,
      "arg_perigee_deg": 49.8602,
      "mean_anomaly_deg": 310.2661,
      "mean_motion_rev_day": 13.11415602
    },
    {
      "epoch": "2026-05-03T17:21:36.186336Z",
      "apogee_km": 1218.7929677730508,
      "perigee_km": 1216.5719501632484,
      "latitude_deg": 2.57086311957828e-05,
      "longitude_deg": -92.10170424468062,
      "height_km": 1219.8456406074188,
      "semi_major_axis_km": 7595.819458968149,
      "eccentricity": 0.0001462,
      "inclination_deg": 87.8922,
      "raan_deg": 29.922,
      "arg_perigee_deg": 49.3052,
      "mean_anomaly_deg": 310.8203,
      "mean_motion_rev_day": 13.11417007
    },
    {
      "epoch": "2026-05-04T11:40:16.518720Z",
      "apogee_km": 1218.7657401267334,
      "perigee_km": 1216.5959188055685,
      "latitude_deg": 2.3606420656234306e-05,
      "longitude_deg": -7.673272894884013,
      "height_km": 1219.8680670912909,
      "semi_major_axis_km": 7595.817829466151,
      "eccentricity": 0.00014283,
      "inclination_deg": 87.8922,
      "raan_deg": 29.7705,
      "arg_perigee_deg": 49.8139,
      "mean_anomaly_deg": 310.3114,
      "mean_motion_rev_day": 13.11417429
    },
    {
      "epoch": "2026-05-05T16:58:08.897088Z",
      "apogee_km": 1218.7246729227218,
      "perigee_km": 1216.628228410339,
      "latitude_deg": 6.018759919028462e-06,
      "longitude_deg": -88.58734259654878,
      "height_km": 1219.8905482091018,
      "semi_major_axis_km": 7595.81345066653,
      "eccentricity": 0.000138,
      "inclination_deg": 87.8923,
      "raan_deg": 29.5279,
      "arg_perigee_deg": 50.0368,
      "mean_anomaly_deg": 310.0881,
      "mean_motion_rev_day": 13.11418563
    },
    {
      "epoch": "2026-05-06T18:36:17.198784Z",
      "apogee_km": 1218.7040382219475,
      "perigee_km": 1216.6455732225959,
      "latitude_deg": 6.0545144907254114e-05,
      "longitude_deg": -114.38705338438824,
      "height_km": 1219.9225990251794,
      "semi_major_axis_km": 7595.811805722271,
      "eccentricity": 0.0001355,
      "inclination_deg": 87.892,
      "raan_deg": 29.3156,
      "arg_perigee_deg": 51.5817,
      "mean_anomaly_deg": 308.5433,
      "mean_motion_rev_day": 13.11418989
    }
  ]
}